ONEWEB-0612             
1 54675U 22166AK  24097.57005993  .00000131  00000+0  28657-3 0  9999
2 54675  87.9292  43.5095 0002257  77.3482 282.7904 13.21824042 66000
ONEWEB-0659             
1 54678U 22166AN  24097.54167090  .00000024  00000+0  26856-4 0  9997
2 54678  87.9290  43.5491 0001861  87.5985 272.5362 13.21824047 65629
ONEWEB-0685             
1 54679U 22166AP  24097.92176141 -.00000036  00000+0 -11823-3 0  9999
2 54679  87.9294  43.4618 0002093  71.7272 288.4090 13.21827948 65566
ONEWEB-0712             
1 54680U 22166AQ  24097.55095167  .00000028  00000+0  39915-4 0  9990
2 54680  87.9141  28.3330 0001464  81.2325 278.8972 13.16592360 66573
ONEWEB-0714             
1 54681U 22166AR  24097.92803534 -.00000035  00000+0 -11553-3 0  9994
2 54681  87.9295  43.4457 0002069  71.4486 288.6873 13.21824152 65686
ONEWEB-0532             
1 55140U 23004A   24097.90614109  .00000006  00000+0 -16471-4 0  9995
2 55140  87.9233 165.2990 0002892 103.3054 256.8400 13.17648931 62060
